{
  "norad_id": 21639,
  "name": "TDRS 5",
  "history": [
    {
      "epoch": "2026-03-28T06:08:02.404032",
      "apogee_km": 35825.96410453922,
      "perigee_km": 35745.10261752083,
      "latitude_deg": 4.468888375551801,
      "longitude_deg": -31.563995520118624,
      "semi_major_axis_km": 42163.670361030025,
      "eccentricity": 0.0009589,
      "inclination_deg": 14.0818,
      "raan_deg": 354.3784,
      "arg_perigee_deg": 279.2122,
      "mean_anomaly_deg": 196.4212,
      "mean_motion_rev_day": 1.00275572
    }
  ]
}